{"type": "FeatureCollection", "features": [{"type": "Feature", "properties": {"norad_id": 66310, "name": "LVM3 R/B", "group": "last-30-days", "lat": 17.565589968181527, "lon": -162.4245772638757, "alt_km": 20590.34215415725, "timestamp": "2025-12-02T10:50:46.050462+00:00", "meta": {"OBJECT_NAME": "LVM3 R/B", "OBJECT_ID": "2025-249A", "EPOCH": "2025-12-01T08:08:40.653888", "MEAN_MOTION": 3.14269232, "ECCENTRICITY": 0.66687925, "INCLINATION": 21.349, "RA_OF_ASC_NODE": 143.9958, "ARG_OF_PERICENTER": 208.0487, "MEAN_ANOMALY": 89.1049, "EPHEMERIS_TYPE": 0, "CLASSIFICATION_TYPE": "U", "NORAD_CAT_ID": 66310, "ELEMENT_SET_NO": 999, "REV_AT_EPOCH": 92, "BSTAR": 0.0012816185, "MEAN_MOTION_DOT": 0.00047432, "MEAN_MOTION_DDOT": -3.64541e-07}, "tle": {"line1": "1 66310U 25249A   25335.33935942  .00047432 -36454-6  12816-2 0  9993", "line2": "2 66310  21.3490 143.9958 6668792 208.0487  89.1049  3.14269232   923"}}, "geometry": {"type": "Point", "coordinates": [-162.4245772638757, 17.565589968181527]}}, {"type": "Feature", "properties": {"norad_id": 66311, "name": "CMS-03 (GSAT-7R)", "group": "last-30-days", "lat": 0.14534782900312304, "lon": -32.33274301217482, "alt_km": 35799.94327755284, "timestamp": "2025-12-02T10:50:46.050518+00:00", "meta": {"OBJECT_NAME": "CMS-03 (GSAT-7R)", "OBJECT_ID": "2025-249B", "EPOCH": "2025-12-02T00:31:54.223968", "MEAN_MOTION": 1.00268583, "ECCENTRICITY": 0.0004014, "INCLINATION": 0.1679, "RA_OF_ASC_NODE": 272.063, "ARG_OF_PERICENTER": 195.7202, "MEAN_ANOMALY": 64.8082, "EPHEMERIS_TYPE": 0, "CLASSIFICATION_TYPE": "U", "NORAD_CAT_ID": 66311, "ELEMENT_SET_NO": 999, "REV_AT_EPOCH": 37, "BSTAR": 0, "MEAN_MOTION_DOT": -2.36e-06, "MEAN_MOTION_DDOT": 0}, "tle": {"line1": "1 66311U 25249B   25336.02215537 -.00000236  00000+0  00000+0 0  9993", "line2": "2 66311   0.1679 272.0630 0004014 195.7202  64.8082  1.00268583   378"}}, "geometry": {"type": "Point", "coordinates": [-32.33274301217482, 0.14534782900312304]}}, {"type": "Feature", "properties": {"norad_id": 66313, "name": "YAOGAN-46", "group": "last-30-days", "lat": 19.69770395745443, "lon": 178.0126741488099, "alt_km": 7397.850842259198, "timestamp": "2025-12-02T10:50:46.050543+00:00", "meta": {"OBJECT_NAME": "YAOGAN-46", "OBJECT_ID": "2025-250A", "EPOCH": "2025-11-23T01:44:02.775840", "MEAN_MOTION": 5.35115916, "ECCENTRICITY": 0.00492374, "INCLINATION": 20.0335, "RA_OF_ASC_NODE": 104.8243, "ARG_OF_PERICENTER": 135.6954, "MEAN_ANOMALY": 224.7061, "EPHEMERIS_TYPE": 0, "CLASSIFICATION_TYPE": "U", "NORAD_CAT_ID": 66313, "ELEMENT_SET_NO": 999, "REV_AT_EPOCH": 114, "BSTAR": 0, "MEAN_MOTION_DOT": -7e-08, "MEAN_MOTION_DDOT": 0}, "tle": {"line1": "1 66313U 25250A   25327.07225435 -.00000007  00000+0  00000+0 0  9996", "line2": "2 66313  20.0335 104.8243 0049237 135.6954 224.7061  5.35115916  1148"}}, "geometry": {"type": "Point", "coordinates": [178.0126741488099, 19.69770395745443]}}, {"type": "Feature", "properties": {"norad_id": 66315, "name": "SENTINEL-1D", "group": "last-30-days", "lat": 63.73769316689036, "lon": -35.357956847438075, "alt_km": 687.2540184028312, "timestamp": "2025-12-02T10:50:46.050559+00:00", "meta": {"OBJECT_NAME": "SENTINEL-1D", "OBJECT_ID": "2025-251A", "EPOCH": "2025-12-02T00:40:48.264096", "MEAN_MOTION": 14.59909618, "ECCENTRICITY": 0.0002558, "INCLINATION": 98.1924, "RA_OF_ASC_NODE": 341.1996, "ARG_OF_PERICENTER": 156.7626, "MEAN_ANOMALY": 203.369, "EPHEMERIS_TYPE": 0, "CLASSIFICATION_TYPE": "U", "NORAD_CAT_ID": 66315, "ELEMENT_SET_NO": 999, "REV_AT_EPOCH": 397, "BSTAR": 6.54e-05, "MEAN_MOTION_DOT": 2.67e-06, "MEAN_MOTION_DDOT": 0}, "tle": {"line1": "1 66315U 25251A   25336.02833639  .00000267  00000+0  65400-4 0  9992", "line2": "2 66315  98.1924 341.1996 0002558 156.7626 203.3690 14.59909618  3976"}}, "geometry": {"type": "Point", "coordinates": [-35.357956847438075, 63.73769316689036]}}, {"type": "Feature", "properties": {"norad_id": 66316, "name": "QPS-SAR-14 (YACHIHOKO-I)", "group": "last-30-days", "lat": -39.97427872396396, "lon": 63.09870296144282, "alt_km": 581.9786362061122, "timestamp": "2025-12-02T10:50:46.050572+00:00", "meta": {"OBJECT_NAME": "QPS-SAR-14 (YACHIHOKO-I)", "OBJECT_ID": "2025-252A", "EPOCH": "2025-12-01T22:22:08.569632", "MEAN_MOTION": 14.97516948, "ECCENTRICITY": 0.0006919, "INCLINATION": 42.003, "RA_OF_ASC_NODE": 134.6343, "ARG_OF_PERICENTER": 75.2493, "MEAN_ANOMALY": 284.9098, "EPHEMERIS_TYPE": 0, "CLASSIFICATION_TYPE": "U", "NORAD_CAT_ID": 66316, "ELEMENT_SET_NO": 999, "REV_AT_EPOCH": 391, "BSTAR": 0.0005936, "MEAN_MOTION_DOT": 6.864e-05, "MEAN_MOTION_DDOT": 0}, "tle": {"line1": "1 66316U 25252A   25335.93204363  .00006864  00000+0  59360-3 0  9995", "line2": "2 66316  42.0030 134.6343 0006919  75.2493 284.9098 14.97516948  3919"}}, "geometry": {"type": "Point", "coordinates": [63.09870296144282, -39.97427872396396]}}, {"type": "Feature", "properties": {"norad_id": 66317, "name": "ELECTRON R/B", "group": "last-30-days", "lat": 34.572100418415395, "lon": 163.72405073885383, "alt_km": 194.43869771138634, "timestamp": "2025-12-02T10:50:46.050583+00:00", "meta": {"OBJECT_NAME": "ELECTRON R/B", "OBJECT_ID": "2025-252B", "EPOCH": "2025-11-29T21:07:58.211904", "MEAN_MOTION": 15.94243293, "ECCENTRICITY": 0.01246685, "INCLINATION": 41.9889, "RA_OF_ASC_NODE": 130.1303, "ARG_OF_PERICENTER": 46.1701, "MEAN_ANOMALY": 314.9386, "EPHEMERIS_TYPE": 0, "CLASSIFICATION_TYPE": "U", "NORAD_CAT_ID": 66317, "ELEMENT_SET_NO": 999, "REV_AT_EPOCH": 378, "BSTAR": 0.0019142518, "MEAN_MOTION_DOT": 0.01669799, "MEAN_MOTION_DDOT": 7.910989e-06}, "tle": {"line1": "1 66317U 25252B   25333.88053486  .01669799  79110-5  19143-2 0  9997", "line2": "2 66317  41.9889 130.1303 0124668  46.1701 314.9386 15.94243293  3785"}}, "geometry": {"type": "Point", "coordinates": [163.72405073885383, 34.572100418415395]}}, {"type": "Feature", "properties": {"norad_id": 66319, "name": "STARLINK-35442", "group": "last-30-days", "lat": -19.232750690376225, "lon": 23.172745365864966, "alt_km": 445.38025003733037, "timestamp": "2025-12-02T10:50:46.050598+00:00", "meta": {"OBJECT_NAME": "STARLINK-35442", "OBJECT_ID": "2025-253A", "EPOCH": "2025-12-02T04:00:03.998880", "MEAN_MOTION": 15.40644955, "ECCENTRICITY": 0.0001283, "INCLINATION": 43.0007, "RA_OF_ASC_NODE": 46.8027, "ARG_OF_PERICENTER": 283.1417, "MEAN_ANOMALY": 264.2727, "EPHEMERIS_TYPE": 0, "CLASSIFICATION_TYPE": "U", "NORAD_CAT_ID": 66319, "ELEMENT_SET_NO": 999, "REV_AT_EPOCH": 532, "BSTAR": 0.001587, "MEAN_MOTION_DOT": 0.00066445, "MEAN_MOTION_DDOT": 0}, "tle": {"line1": "1 66319U 25253A   25336.16671295  .00066445  00000+0  15870-2 0  9995", "line2": "2 66319  43.0007  46.8027 0001283 283.1417 264.2727 15.40644955  5321"}}, "geometry": {"type": "Point", "coordinates": [23.172745365864966, -19.232750690376225]}}, {"type": "Feature", "properties": {"norad_id": 66320, "name": "STARLINK-34616", "group": "last-30-days", "lat": 41.406061471197084, "lon": 116.03714804433663, "alt_km": 409.004135205344, "timestamp": "2025-12-02T10:50:46.050609+00:00", "meta": {"OBJECT_NAME": "STARLINK-34616", "OBJECT_ID": "2025-253B", "EPOCH": "2025-12-01T12:52:41.676672", "MEAN_MOTION": 15.50595365, "ECCENTRICITY": 0.00020299, "INCLINATION": 43.0003, "RA_OF_ASC_NODE": 50.2572, "ARG_OF_PERICENTER": 284.6496, "MEAN_ANOMALY": 75.4139, "EPHEMERIS_TYPE": 0, "CLASSIFICATION_TYPE": "U", "NORAD_CAT_ID": 66320, "ELEMENT_SET_NO": 999, "REV_AT_EPOCH": 527, "BSTAR": 0.0016321676, "MEAN_MOTION_DOT": 0.00096659, "MEAN_MOTION_DDOT": 0}, "tle": {"line1": "1 66320U 25253B   25335.53659348  .00096659  00000+0  16322-2 0  9995", "line2": "2 66320  43.0003  50.2572 0002029 284.6496  75.4139 15.50595365  5279"}}, "geometry": {"type": "Point", "coordinates": [116.03714804433663, 41.406061471197084]}}, {"type": "Feature", "properties": {"norad_id": 66321, "name": "STARLINK-34615", "group": "last-30-days", "lat": 2.970100982144351, "lon": 47.38536003505584, "alt_km": 375.2435369312352, "timestamp": "2025-12-02T10:50:46.050620+00:00", "meta": {"OBJECT_NAME": "STARLINK-34615", "OBJECT_ID": "2025-253C", "EPOCH": "2025-12-01T13:21:43.206912", "MEAN_MOTION": 15.63263158, "ECCENTRICITY": 0.00023769, "INCLINATION": 42.9996, "RA_OF_ASC_NODE": 49.5325, "ARG_OF_PERICENTER": 5.4675, "MEAN_ANOMALY": 354.6216, "EPHEMERIS_TYPE": 0, "CLASSIFICATION_TYPE": "U", "NORAD_CAT_ID": 66321, "ELEMENT_SET_NO": 999, "REV_AT_EPOCH": 520, "BSTAR": 0.0016579406, "MEAN_MOTION_DOT": 0.00159038, "MEAN_MOTION_DDOT": 0}, "tle": {"line1": "1 66321U 25253C   25335.55675008  .00159038  00000+0  16579-2 0  9994", "line2": "2 66321  42.9996  49.5325 0002376   5.4675 354.6216 15.63263158  5206"}}, "geometry": {"type": "Point", "coordinates": [47.38536003505584, 2.970100982144351]}}, {"type": "Feature", "properties": {"norad_id": 66322, "name": "STARLINK-35292", "group": "last-30-days", "lat": 5.733398771373691, "lon": 51.25304690614715, "alt_km": 442.22857061428294, "timestamp": "2025-12-02T10:50:46.050631+00:00", "meta": {"OBJECT_NAME": "STARLINK-35292", "OBJECT_ID": "2025-253D", "EPOCH": "2025-12-01T16:00:03.999744", "MEAN_MOTION": 15.40618661, "ECCENTRICITY": 0.00020803, "INCLINATION": 43.0004, "RA_OF_ASC_NODE": 49.5938, "ARG_OF_PERICENTER": 294.3213, "MEAN_ANOMALY": 33.7788, "EPHEMERIS_TYPE": 0, "CLASSIFICATION_TYPE": "U", "NORAD_CAT_ID": 66322, "ELEMENT_SET_NO": 999, "REV_AT_EPOCH": 514, "BSTAR": 0.0028657716, "MEAN_MOTION_DOT": 0.00120998, "MEAN_MOTION_DDOT": 0}, "tle": {"line1": "1 66322U 25253D   25335.66671296  .00120998  00000+0  28658-2 0  9996", "line2": "2 66322  43.0004  49.5938 0002080 294.3213  33.7788 15.40618661  5148"}}, "geometry": {"type": "Point", "coordinates": [51.25304690614715, 5.733398771373691]}}]}